[{"OBJECT_NAME":"BNU-1 (JINGSHI 1)","OBJECT_ID":"2019-059B","EPOCH":"2026-03-09T22:44:13.004736","MEAN_MOTION":14.48293204,"ECCENTRICITY":0.00122993,"INCLINATION":98.5897,"RA_OF_ASC_NODE":196.2785,"ARG_OF_PERICENTER":317.1468,"MEAN_ANOMALY":42.8765,"EPHEMERIS_TYPE":0,"CLASSIFICATION_TYPE":"U","NORAD_CAT_ID":44529,"ELEMENT_SET_NO":999,"REV_AT_EPOCH":34262,"BSTAR":0.00022298879,"MEAN_MOTION_DOT":7.88e-6,"MEAN_MOTION_DDOT":0},{"OBJECT_NAME":"COSMOS 2251 DEB","OBJECT_ID":"1993-036AWP","EPOCH":"2026-03-06T14:35:25.325664","MEAN_MOTION":14.51874084,"ECCENTRICITY":0.00123725,"INCLINATION":74.0451,"RA_OF_ASC_NODE":29.4714,"ARG_OF_PERICENTER":87.1603,"MEAN_ANOMALY":273.0974,"EPHEMERIS_TYPE":0,"CLASSIFICATION_TYPE":"U","NORAD_CAT_ID":35997,"ELEMENT_SET_NO":999,"REV_AT_EPOCH":72101,"BSTAR":0.0010621558,"MEAN_MOTION_DOT":4.259e-5,"MEAN_MOTION_DDOT":0}]
